[{"OBJECT_NAME":"SHIYAN-30 03","OBJECT_ID":"2026-048A","EPOCH":"2026-03-28T20:19:53.393664","MEAN_MOTION":14.91724073,"ECCENTRICITY":0.00031917,"INCLINATION":35.0012,"RA_OF_ASC_NODE":29.25,"ARG_OF_PERICENTER":358.4198,"MEAN_ANOMALY":1.6497,"EPHEMERIS_TYPE":0,"CLASSIFICATION_TYPE":"U","NORAD_CAT_ID":68139,"ELEMENT_SET_NO":999,"REV_AT_EPOCH":236,"BSTAR":0.00029960629,"MEAN_MOTION_DOT":3.047e-5,"MEAN_MOTION_DDOT":0},{"OBJECT_NAME":"SHIYAN-30 04","OBJECT_ID":"2026-048B","EPOCH":"2026-03-28T21:57:17.347968","MEAN_MOTION":14.91733095,"ECCENTRICITY":0.00016866,"INCLINATION":34.9927,"RA_OF_ASC_NODE":28.8506,"ARG_OF_PERICENTER":354.9978,"MEAN_ANOMALY":5.071,"EPHEMERIS_TYPE":0,"CLASSIFICATION_TYPE":"U","NORAD_CAT_ID":68140,"ELEMENT_SET_NO":999,"REV_AT_EPOCH":237,"BSTAR":0.00028781972,"MEAN_MOTION_DOT":2.927e-5,"MEAN_MOTION_DDOT":0},{"OBJECT_NAME":"CZ-2D R/B","OBJECT_ID":"2026-048C","EPOCH":"2026-03-29T05:02:23.565408","MEAN_MOTION":14.9556502,"ECCENTRICITY":0.0015113,"INCLINATION":35.1307,"RA_OF_ASC_NODE":26.8521,"ARG_OF_PERICENTER":137.6457,"MEAN_ANOMALY":222.5421,"EPHEMERIS_TYPE":0,"CLASSIFICATION_TYPE":"U","NORAD_CAT_ID":68141,"ELEMENT_SET_NO":999,"REV_AT_EPOCH":242,"BSTAR":0.00018548,"MEAN_MOTION_DOT":2.07e-5,"MEAN_MOTION_DDOT":0},{"OBJECT_NAME":"STARLINK-36604","OBJECT_ID":"2026-049A","EPOCH":"2026-03-29T02:23:09.425760","MEAN_MOTION":15.80844349,"ECCENTRICITY":0.0001246,"INCLINATION":97.2844,"RA_OF_ASC_NODE":108.3009,"ARG_OF_PERICENTER":119.1977,"MEAN_ANOMALY":240.9416,"EPHEMERIS_TYPE":0,"CLASSIFICATION_TYPE":"U","NORAD_CAT_ID":68142,"ELEMENT_SET_NO":999,"REV_AT_EPOCH":247,"BSTAR":0.00049435,"MEAN_MOTION_DOT":0.00095719,"MEAN_MOTION_DDOT":0},{"OBJECT_NAME":"STARLINK-36995","OBJECT_ID":"2026-049B","EPOCH":"2026-03-29T02:22:04.503072","MEAN_MOTION":15.80840636,"ECCENTRICITY":7.73e-5,"INCLINATION":97.2846,"RA_OF_ASC_NODE":108.3017,"ARG_OF_PERICENTER":78.0778,"MEAN_ANOMALY":282.0577,"EPHEMERIS_TYPE":0,"CLASSIFICATION_TYPE":"U","NORAD_CAT_ID":68143,"ELEMENT_SET_NO":999,"REV_AT_EPOCH":247,"BSTAR":0.00047463,"MEAN_MOTION_DOT":0.00091836,"MEAN_MOTION_DDOT":0},{"OBJECT_NAME":"STARLINK-37020","OBJECT_ID":"2026-049C","EPOCH":"2026-03-28T21:46:26.816448","MEAN_MOTION":15.80853931,"ECCENTRICITY":9.155e-5,"INCLINATION":97.2844,"RA_OF_ASC_NODE":108.1031,"ARG_OF_PERICENTER":118.5602,"MEAN_ANOMALY":241.5759,"EPHEMERIS_TYPE":0,"CLASSIFICATION_TYPE":"U","NORAD_CAT_ID":68144,"ELEMENT_SET_NO":999,"REV_AT_EPOCH":244,"BSTAR":0.00060907304,"MEAN_MOTION_DOT":0.00118322,"MEAN_MOTION_DDOT":0},{"OBJECT_NAME":"STARLINK-36244","OBJECT_ID":"2026-049D","EPOCH":"2026-03-29T04:00:01.999584","MEAN_MOTION":15.75164232,"ECCENTRICITY":0.0001166,"INCLINATION":97.2845,"RA_OF_ASC_NODE":108.3659,"ARG_OF_PERICENTER":86.4534,"MEAN_ANOMALY":282.8806,"EPHEMERIS_TYPE":0,"CLASSIFICATION_TYPE":"U","NORAD_CAT_ID":68145,"ELEMENT_SET_NO":999,"REV_AT_EPOCH":376,"BSTAR":0.0001033,"MEAN_MOTION_DOT":0.00015288,"MEAN_MOTION_DDOT":0},{"OBJECT_NAME":"STARLINK-36980","OBJECT_ID":"2026-049E","EPOCH":"2026-03-29T02:18:49.761792","MEAN_MOTION":15.80888567,"ECCENTRICITY":0.0001282,"INCLINATION":97.2844,"RA_OF_ASC_NODE":108.3047,"ARG_OF_PERICENTER":113.8176,"MEAN_ANOMALY":246.3226,"EPHEMERIS_TYPE":0,"CLASSIFICATION_TYPE":"U","NORAD_CAT_ID":68146,"ELEMENT_SET_NO":999,"REV_AT_EPOCH":247,"BSTAR":0.0011381,"MEAN_MOTION_DOT":0.00224296,"MEAN_MOTION_DDOT":0},{"OBJECT_NAME":"STARLINK-37055","OBJECT_ID":"2026-049F","EPOCH":"2026-03-29T02:20:59.633088","MEAN_MOTION":15.8082451,"ECCENTRICITY":9.21e-5,"INCLINATION":97.2845,"RA_OF_ASC_NODE":108.3021,"ARG_OF_PERICENTER":87.4882,"MEAN_ANOMALY":272.6492,"EPHEMERIS_TYPE":0,"CLASSIFICATION_TYPE":"U","NORAD_CAT_ID":68147,"ELEMENT_SET_NO":999,"REV_AT_EPOCH":247,"BSTAR":0.00036792,"MEAN_MOTION_DOT":0.00070933,"MEAN_MOTION_DDOT":0},{"OBJECT_NAME":"STARLINK-36981","OBJECT_ID":"2026-049G","EPOCH":"2026-03-29T00:45:30.680640","MEAN_MOTION":15.80854217,"ECCENTRICITY":0.000137,"INCLINATION":97.2845,"RA_OF_ASC_NODE":108.2393,"ARG_OF_PERICENTER":97.7682,"MEAN_ANOMALY":262.3742,"EPHEMERIS_TYPE":0,"CLASSIFICATION_TYPE":"U","NORAD_CAT_ID":68148,"ELEMENT_SET_NO":999,"REV_AT_EPOCH":246,"BSTAR":0.0005878,"MEAN_MOTION_DOT":0.00114133,"MEAN_MOTION_DDOT":0},{"OBJECT_NAME":"STARLINK-36992","OBJECT_ID":"2026-049H","EPOCH":"2026-03-29T02:15:35.138016","MEAN_MOTION":15.80879874,"ECCENTRICITY":0.0001273,"INCLINATION":97.2845,"RA_OF_ASC_NODE":108.3073,"ARG_OF_PERICENTER":101.0714,"MEAN_ANOMALY":259.0697,"EPHEMERIS_TYPE":0,"CLASSIFICATION_TYPE":"U","NORAD_CAT_ID":68149,"ELEMENT_SET_NO":999,"REV_AT_EPOCH":247,"BSTAR":0.0011356,"MEAN_MOTION_DOT":0.00223696,"MEAN_MOTION_DDOT":0},{"OBJECT_NAME":"STARLINK-37060","OBJECT_ID":"2026-049J","EPOCH":"2026-03-29T02:14:30.045120","MEAN_MOTION":15.80889246,"ECCENTRICITY":0.0001437,"INCLINATION":97.2843,"RA_OF_ASC_NODE":108.3083,"ARG_OF_PERICENTER":85.8822,"MEAN_ANOMALY":274.261,"EPHEMERIS_TYPE":0,"CLASSIFICATION_TYPE":"U","NORAD_CAT_ID":68150,"ELEMENT_SET_NO":999,"REV_AT_EPOCH":247,"BSTAR":0.0010299,"MEAN_MOTION_DOT":0.00202457,"MEAN_MOTION_DDOT":0},{"OBJECT_NAME":"STARLINK-37073","OBJECT_ID":"2026-049K","EPOCH":"2026-03-29T02:13:25.213152","MEAN_MOTION":15.8087569,"ECCENTRICITY":0.0001309,"INCLINATION":97.2844,"RA_OF_ASC_NODE":108.3095,"ARG_OF_PERICENTER":80.1829,"MEAN_ANOMALY":279.9587,"EPHEMERIS_TYPE":0,"CLASSIFICATION_TYPE":"U","NORAD_CAT_ID":68151,"ELEMENT_SET_NO":999,"REV_AT_EPOCH":247,"BSTAR":0.00097751,"MEAN_MOTION_DOT":0.00191792,"MEAN_MOTION_DDOT":0},{"OBJECT_NAME":"STARLINK-37049","OBJECT_ID":"2026-049L","EPOCH":"2026-03-29T02:12:20.370816","MEAN_MOTION":15.80866979,"ECCENTRICITY":0.0001492,"INCLINATION":97.2844,"RA_OF_ASC_NODE":108.3106,"ARG_OF_PERICENTER":100.8499,"MEAN_ANOMALY":259.2937,"EPHEMERIS_TYPE":0,"CLASSIFICATION_TYPE":"U","NORAD_CAT_ID":68152,"ELEMENT_SET_NO":999,"REV_AT_EPOCH":247,"BSTAR":0.00088234,"MEAN_MOTION_DOT":0.00172656,"MEAN_MOTION_DDOT":0},{"OBJECT_NAME":"STARLINK-37072","OBJECT_ID":"2026-049M","EPOCH":"2026-03-29T02:11:15.370368","MEAN_MOTION":15.80821346,"ECCENTRICITY":0.0001246,"INCLINATION":97.2847,"RA_OF_ASC_NODE":108.3113,"ARG_OF_PERICENTER":105.4715,"MEAN_ANOMALY":254.669,"EPHEMERIS_TYPE":0,"CLASSIFICATION_TYPE":"U","NORAD_CAT_ID":68153,"ELEMENT_SET_NO":999,"REV_AT_EPOCH":247,"BSTAR":0.00016545,"MEAN_MOTION_DOT":0.00031671,"MEAN_MOTION_DDOT":0},{"OBJECT_NAME":"STARLINK-36241","OBJECT_ID":"2026-049N","EPOCH":"2026-03-29T04:00:01.999584","MEAN_MOTION":15.75174677,"ECCENTRICITY":0.0001109,"INCLINATION":97.2845,"RA_OF_ASC_NODE":108.3755,"ARG_OF_PERICENTER":91.9498,"MEAN_ANOMALY":299.372,"EPHEMERIS_TYPE":0,"CLASSIFICATION_TYPE":"U","NORAD_CAT_ID":68154,"ELEMENT_SET_NO":999,"REV_AT_EPOCH":376,"BSTAR":8.1241e-5,"MEAN_MOTION_DOT":0.00011997,"MEAN_MOTION_DDOT":0},{"OBJECT_NAME":"STARLINK-37048","OBJECT_ID":"2026-049P","EPOCH":"2026-03-29T03:38:04.616448","MEAN_MOTION":15.80902385,"ECCENTRICITY":0.0001185,"INCLINATION":97.2844,"RA_OF_ASC_NODE":108.3818,"ARG_OF_PERICENTER":100.9518,"MEAN_ANOMALY":259.1884,"EPHEMERIS_TYPE":0,"CLASSIFICATION_TYPE":"U","NORAD_CAT_ID":68155,"ELEMENT_SET_NO":999,"REV_AT_EPOCH":248,"BSTAR":0.0011759,"MEAN_MOTION_DOT":0.00232108,"MEAN_MOTION_DDOT":0}]
