SHIYAN-30 03            
1 68139U 26048A   26087.84714576  .00003047  00000+0  29961-3 0  9995
2 68139  35.0012  29.2500 0003191 358.4198   1.6497 14.91724073  2366
SHIYAN-30 04            
1 68140U 26048B   26087.91478412  .00002927  00000+0  28782-3 0  9997
2 68140  34.9927  28.8506 0001686 354.9978   5.0710 14.91733095  2377
CZ-2D R/B               
1 68141U 26048C   26088.20999497  .00002070  00000+0  18548-3 0  9990
2 68141  35.1307  26.8521 0015113 137.6457 222.5421 14.95565020  2422
STARLINK-36604          
1 68142U 26049A   26088.09941465  .00095719  00000+0  49435-3 0  9992
2 68142  97.2844 108.3009 0001246 119.1977 240.9416 15.80844349  2471
STARLINK-36995          
1 68143U 26049B   26088.09866323  .00091836  00000+0  47463-3 0  9997
2 68143  97.2846 108.3017 0000773  78.0778 282.0577 15.80840636  2479
STARLINK-37020          
1 68144U 26049C   26087.90725482  .00118322  00000+0  60907-3 0  9995
2 68144  97.2844 108.1031 0000915 118.5602 241.5759 15.80853931  2447
STARLINK-36244          
1 68145U 26049D   26088.16668981  .00015288  00000+0  10330-3 0  9997
2 68145  97.2845 108.3659 0001166  86.4534 282.8806 15.75164232  3763
STARLINK-36980          
1 68146U 26049E   26088.09640928  .00224296  00000+0  11381-2 0  9998
2 68146  97.2844 108.3047 0001282 113.8176 246.3226 15.80888567  2478
STARLINK-37055          
1 68147U 26049F   26088.09791242  .00070933  00000+0  36792-3 0  9996
2 68147  97.2845 108.3021 0000921  87.4882 272.6492 15.80824510  2476
STARLINK-36981          
1 68148U 26049G   26088.03160510  .00114133  00000+0  58780-3 0  9991
2 68148  97.2845 108.2393 0001370  97.7682 262.3742 15.80854217  2469
STARLINK-36992          
1 68149U 26049H   26088.09415669  .00223696  00000+0  11356-2 0  9998
2 68149  97.2845 108.3073 0001273 101.0714 259.0697 15.80879874  2472
STARLINK-37060          
1 68150U 26049J   26088.09340330  .00202457  00000+0  10299-2 0  9999
2 68150  97.2843 108.3083 0001437  85.8822 274.2610 15.80889246  2472
STARLINK-37073          
1 68151U 26049K   26088.09265293  .00191792  00000+0  97751-3 0  9992
2 68151  97.2844 108.3095 0001309  80.1829 279.9587 15.80875690  2473
STARLINK-37049          
1 68152U 26049L   26088.09190244  .00172656  00000+0  88234-3 0  9990
2 68152  97.2844 108.3106 0001492 100.8499 259.2937 15.80866979  2473
STARLINK-37072          
1 68153U 26049M   26088.09115012  .00031671  00000+0  16545-3 0  9998
2 68153  97.2847 108.3113 0001246 105.4715 254.6690 15.80821346  2478
STARLINK-36241          
1 68154U 26049N   26088.16668981  .00011997  00000+0  81241-4 0  9990
2 68154  97.2845 108.3755 0001109  91.9498 299.3720 15.75174677  3769
STARLINK-37048          
1 68155U 26049P   26088.15144232  .00232108  00000+0  11759-2 0  9992
2 68155  97.2844 108.3818 0001185 100.9518 259.1884 15.80902385  2481
